GLOBALSTAR M094         
1 39074U 13005C   25035.46434477 -.00000083  00000+0  11416-3 0  9993
2 39074  51.9928 226.2195 0000940  68.8124 291.2843 12.62268157555619
GLOBALSTAR M096         
1 39075U 13005D   25035.08166721 -.00000076  00000+0  15454-3 0  9994
2 39075  52.0067 275.7981 0000773  50.5636 309.5299 12.62267957554487
GLOBALSTAR M078         
1 39076U 13005E   25035.21297123 -.00000007  00000+0  54253-3 0  9995
2 39076  51.9896   0.0810 0000577 240.9645 119.1164 12.62270481553125
GLOBALSTAR M095         
1 39077U 13005F   25035.31901374 -.00000090  00000+0  76520-4 0  9991
2 39077  51.9825 357.0245 0000343 321.9779  38.1063 12.62265875552997
GLOBALSTAR M087         
1 52888U 22064A   25035.42893320 -.00000086  00000+0  97766-4 0  9994
2 52888  51.9787 138.0965 0000634 116.3125 243.7806 12.62268319128274
